[{"OBJECT_NAME":"GS-1","OBJECT_ID":"2023-060C","EPOCH":"2026-03-30T01:25:07.395168","MEAN_MOTION":1.00294667,"ECCENTRICITY":0.00047158,"INCLINATION":2.5218,"RA_OF_ASC_NODE":80.7433,"ARG_OF_PERICENTER":268.2037,"MEAN_ANOMALY":305.3692,"EPHEMERIS_TYPE":0,"CLASSIFICATION_TYPE":"U","NORAD_CAT_ID":56372,"ELEMENT_SET_NO":999,"REV_AT_EPOCH":674,"BSTAR":0,"MEAN_MOTION_DOT":-2.1e-6,"MEAN_MOTION_DDOT":0},{"OBJECT_NAME":"ARABSAT-7B (BADR-8)","OBJECT_ID":"2023-075A","EPOCH":"2026-04-01T06:11:17.402784","MEAN_MOTION":1.00272771,"ECCENTRICITY":0.0005345,"INCLINATION":0.0772,"RA_OF_ASC_NODE":27.1578,"ARG_OF_PERICENTER":335.0106,"MEAN_ANOMALY":306.266,"EPHEMERIS_TYPE":0,"CLASSIFICATION_TYPE":"U","NORAD_CAT_ID":56757,"ELEMENT_SET_NO":999,"REV_AT_EPOCH":1034,"BSTAR":0,"MEAN_MOTION_DOT":1.34e-6,"MEAN_MOTION_DDOT":0},{"OBJECT_NAME":"NVS-01 (IRNSS-1J)","OBJECT_ID":"2023-076A","EPOCH":"2026-04-01T11:54:38.592000","MEAN_MOTION":1.00268047,"ECCENTRICITY":0.0006781,"INCLINATION":2.3496,"RA_OF_ASC_NODE":247.5682,"ARG_OF_PERICENTER":54.3684,"MEAN_ANOMALY":196.0419,"EPHEMERIS_TYPE":0,"CLASSIFICATION_TYPE":"U","NORAD_CAT_ID":56759,"ELEMENT_SET_NO":999,"REV_AT_EPOCH":1034,"BSTAR":0,"MEAN_MOTION_DOT":-3.49e-6,"MEAN_MOTION_DDOT":0},{"OBJECT_NAME":"NUSANTARA TIGA (SATRIA)","OBJECT_ID":"2023-086A","EPOCH":"2026-04-01T11:53:29.580864","MEAN_MOTION":1.0027072,"ECCENTRICITY":0.0005549,"INCLINATION":0.054,"RA_OF_ASC_NODE":311.5475,"ARG_OF_PERICENTER":19.91,"MEAN_ANOMALY":182.763,"EPHEMERIS_TYPE":0,"CLASSIFICATION_TYPE":"U","NORAD_CAT_ID":57045,"ELEMENT_SET_NO":999,"REV_AT_EPOCH":899,"BSTAR":0,"MEAN_MOTION_DOT":-2.44e-6,"MEAN_MOTION_DDOT":0},{"OBJECT_NAME":"H2SAT (HEINRICH HERTZ)","OBJECT_ID":"2023-093A","EPOCH":"2026-04-01T07:46:45.746112","MEAN_MOTION":1.00267978,"ECCENTRICITY":0.0001542,"INCLINATION":0.0165,"RA_OF_ASC_NODE":186.233,"ARG_OF_PERICENTER":265.7884,"MEAN_ANOMALY":215.0496,"EPHEMERIS_TYPE":0,"CLASSIFICATION_TYPE":"U","NORAD_CAT_ID":57213,"ELEMENT_SET_NO":999,"REV_AT_EPOCH":1014,"BSTAR":0,"MEAN_MOTION_DOT":0,"MEAN_MOTION_DDOT":0},{"OBJECT_NAME":"SYRACUSE 4B","OBJECT_ID":"2023-093B","EPOCH":"2026-04-01T09:27:21.098016","MEAN_MOTION":1.00269691,"ECCENTRICITY":3.94e-5,"INCLINATION":0.0233,"RA_OF_ASC_NODE":195.4344,"ARG_OF_PERICENTER":243.0413,"MEAN_ANOMALY":246.6407,"EPHEMERIS_TYPE":0,"CLASSIFICATION_TYPE":"U","NORAD_CAT_ID":57214,"ELEMENT_SET_NO":999,"REV_AT_EPOCH":619,"BSTAR":0,"MEAN_MOTION_DOT":0,"MEAN_MOTION_DDOT":0},{"OBJECT_NAME":"JUPITER 3 (ECHOSTAR 24)","OBJECT_ID":"2023-108A","EPOCH":"2026-03-31T17:44:16.185408","MEAN_MOTION":1.00271449,"ECCENTRICITY":0.0001019,"INCLINATION":0.0118,"RA_OF_ASC_NODE":211.29,"ARG_OF_PERICENTER":156.084,"MEAN_ANOMALY":352.6096,"EPHEMERIS_TYPE":0,"CLASSIFICATION_TYPE":"U","NORAD_CAT_ID":57479,"ELEMENT_SET_NO":999,"REV_AT_EPOCH":987,"BSTAR":0,"MEAN_MOTION_DOT":-1.62e-6,"MEAN_MOTION_DDOT":0},{"OBJECT_NAME":"GALAXY 37 (G-37)","OBJECT_ID":"2023-112A","EPOCH":"2026-04-01T12:19:38.729280","MEAN_MOTION":1.00271557,"ECCENTRICITY":0.0002135,"INCLINATION":0.0187,"RA_OF_ASC_NODE":176.5213,"ARG_OF_PERICENTER":203.3446,"MEAN_ANOMALY":227.9224,"EPHEMERIS_TYPE":0,"CLASSIFICATION_TYPE":"U","NORAD_CAT_ID":57493,"ELEMENT_SET_NO":999,"REV_AT_EPOCH":977,"BSTAR":0,"MEAN_MOTION_DOT":0,"MEAN_MOTION_DDOT":0},{"OBJECT_NAME":"LUDI TANCE-4 01A","OBJECT_ID":"2023-120A","EPOCH":"2026-03-29T19:32:51.567072","MEAN_MOTION":1.00273891,"ECCENTRICITY":0.000417,"INCLINATION":15.1549,"RA_OF_ASC_NODE":195.9353,"ARG_OF_PERICENTER":108.0129,"MEAN_ANOMALY":265.9919,"EPHEMERIS_TYPE":0,"CLASSIFICATION_TYPE":"U","NORAD_CAT_ID":57624,"ELEMENT_SET_NO":999,"REV_AT_EPOCH":975,"BSTAR":0,"MEAN_MOTION_DOT":-2.15e-6,"MEAN_MOTION_DDOT":0},{"OBJECT_NAME":"ZHONGXING-6E","OBJECT_ID":"2023-172A","EPOCH":"2026-04-01T06:36:44.961696","MEAN_MOTION":1.00268778,"ECCENTRICITY":0.0002921,"INCLINATION":0.0266,"RA_OF_ASC_NODE":105.6503,"ARG_OF_PERICENTER":272.6868,"MEAN_ANOMALY":25.9714,"EPHEMERIS_TYPE":0,"CLASSIFICATION_TYPE":"U","NORAD_CAT_ID":58253,"ELEMENT_SET_NO":999,"REV_AT_EPOCH":888,"BSTAR":0,"MEAN_MOTION_DOT":-3.71e-6,"MEAN_MOTION_DDOT":0},{"OBJECT_NAME":"YAOGAN-41","OBJECT_ID":"2023-197A","EPOCH":"2026-03-30T13:34:30.002592","MEAN_MOTION":1.00274684,"ECCENTRICITY":0.00116034,"INCLINATION":3.2741,"RA_OF_ASC_NODE":311.9676,"ARG_OF_PERICENTER":181.9892,"MEAN_ANOMALY":20.8309,"EPHEMERIS_TYPE":0,"CLASSIFICATION_TYPE":"U","NORAD_CAT_ID":58582,"ELEMENT_SET_NO":999,"REV_AT_EPOCH":853,"BSTAR":0,"MEAN_MOTION_DOT":-3.83e-6,"MEAN_MOTION_DDOT":0},{"OBJECT_NAME":"OVZON-3","OBJECT_ID":"2024-003A","EPOCH":"2026-04-01T04:59:02.535936","MEAN_MOTION":1.00272443,"ECCENTRICITY":8.9e-6,"INCLINATION":0.0108,"RA_OF_ASC_NODE":184.564,"ARG_OF_PERICENTER":66.9855,"MEAN_ANOMALY":72.458,"EPHEMERIS_TYPE":0,"CLASSIFICATION_TYPE":"U","NORAD_CAT_ID":58698,"ELEMENT_SET_NO":999,"REV_AT_EPOCH":667,"BSTAR":0,"MEAN_MOTION_DOT":4.1e-7,"MEAN_MOTION_DDOT":0},{"OBJECT_NAME":"INSAT-3DS","OBJECT_ID":"2024-033A","EPOCH":"2026-04-01T03:45:38.767680","MEAN_MOTION":1.0027177,"ECCENTRICITY":0.0002106,"INCLINATION":0.0292,"RA_OF_ASC_NODE":109.8523,"ARG_OF_PERICENTER":263.3868,"MEAN_ANOMALY":314.7645,"EPHEMERIS_TYPE":0,"CLASSIFICATION_TYPE":"U","NORAD_CAT_ID":58990,"ELEMENT_SET_NO":999,"REV_AT_EPOCH":4629,"BSTAR":0,"MEAN_MOTION_DOT":-1.67e-6,"MEAN_MOTION_DDOT":0},{"OBJECT_NAME":"MERAH PUTIH 2","OBJECT_ID":"2024-035A","EPOCH":"2026-04-01T11:44:07.980000","MEAN_MOTION":1.00270865,"ECCENTRICITY":0.0001216,"INCLINATION":0.0033,"RA_OF_ASC_NODE":155.2558,"ARG_OF_PERICENTER":252.7901,"MEAN_ANOMALY":70.7784,"EPHEMERIS_TYPE":0,"CLASSIFICATION_TYPE":"U","NORAD_CAT_ID":58995,"ELEMENT_SET_NO":999,"REV_AT_EPOCH":782,"BSTAR":0,"MEAN_MOTION_DOT":-3.67e-6,"MEAN_MOTION_DDOT":0},{"OBJECT_NAME":"TJS-11","OBJECT_ID":"2024-037A","EPOCH":"2026-04-01T11:46:15.276576","MEAN_MOTION":1.00270321,"ECCENTRICITY":0.0005846,"INCLINATION":4.302,"RA_OF_ASC_NODE":326.1354,"ARG_OF_PERICENTER":62.9166,"MEAN_ANOMALY":97.6757,"EPHEMERIS_TYPE":0,"CLASSIFICATION_TYPE":"U","NORAD_CAT_ID":59020,"ELEMENT_SET_NO":999,"REV_AT_EPOCH":781,"BSTAR":0,"MEAN_MOTION_DOT":-3.83e-6,"MEAN_MOTION_DDOT":0}]
