GS-1                    
1 56372U 23060C   26089.05911337 -.00000210  00000+0  00000+0 0  9990
2 56372   2.5218  80.7433 0004715 268.2037 305.3692  1.00294667  6743
ARABSAT-7B (BADR-8)     
1 56757U 23075A   26091.25784031  .00000134  00000+0  00000+0 0  9991
2 56757   0.0772  27.1578 0005345 335.0106 306.2660  1.00272771 10341
NVS-01 (IRNSS-1J)       
1 56759U 23076A   26091.49628000 -.00000349  00000+0  00000+0 0  9992
2 56759   2.3496 247.5682 0006781  54.3684 196.0419  1.00268047 10340
NUSANTARA TIGA (SATRIA) 
1 57045U 23086A   26091.49548126 -.00000244  00000+0  00000+0 0  9996
2 57045   0.0540 311.5475 0005549  19.9100 182.7630  1.00270720  8993
H2SAT (HEINRICH HERTZ)  
1 57213U 23093A   26091.32414058  .00000000  00000+0  00000+0 0  9998
2 57213   0.0165 186.2330 0001542 265.7884 215.0496  1.00267978 10140
SYRACUSE 4B             
1 57214U 23093B   26091.39399419  .00000000  00000+0  00000+0 0  9999
2 57214   0.0233 195.4344 0000394 243.0413 246.6407  1.00269691  6191
JUPITER 3 (ECHOSTAR 24) 
1 57479U 23108A   26090.73907622 -.00000162  00000+0  00000+0 0  9997
2 57479   0.0118 211.2900 0001019 156.0840 352.6096  1.00271449  9877
GALAXY 37 (G-37)        
1 57493U 23112A   26091.51364270  .00000000  00000+0  00000+0 0  9991
2 57493   0.0187 176.5213 0002135 203.3446 227.9224  1.00271557  9773
LUDI TANCE-4 01A        
1 57624U 23120A   26088.81448573 -.00000215  00000+0  00000+0 0  9993
2 57624  15.1549 195.9353 0004170 108.0129 265.9919  1.00273891  9752
ZHONGXING-6E            
1 58253U 23172A   26091.27552039 -.00000371  00000+0  00000+0 0  9999
2 58253   0.0266 105.6503 0002921 272.6868  25.9714  1.00268778  8883
YAOGAN-41               
1 58582U 23197A   26089.56562503 -.00000383  00000+0  00000+0 0  9990
2 58582   3.2741 311.9676 0011603 181.9892  20.8309  1.00274684  8539
OVZON-3                 
1 58698U 24003A   26091.20766824  .00000041  00000+0  00000+0 0  9991
2 58698   0.0108 184.5640 0000089  66.9855  72.4580  1.00272443  6679
INSAT-3DS               
1 58990U 24033A   26091.15669870 -.00000167  00000+0  00000+0 0  9996
2 58990   0.0292 109.8523 0002106 263.3868 314.7645  1.00271770 46295
MERAH PUTIH 2           
1 58995U 24035A   26091.48898125 -.00000367  00000+0  00000+0 0  9998
2 58995   0.0033 155.2558 0001216 252.7901  70.7784  1.00270865  7820
TJS-11                  
1 59020U 24037A   26091.49045459 -.00000383  00000+0  00000+0 0  9993
2 59020   4.3020 326.1354 0005846  62.9166  97.6757  1.00270321  7817
